 {"de":[

 {"plz" : 21039, "location" : "Börnsen", "state" : "Schleswig-Holstein"}
 {"plz" : 21039, "location" : "Escheburg", "state" : "Schleswig-Holstein"}
 {"plz" : 21039, "location" : "Kröppelshagen-Fahrendorf", "state" : "Schleswig-Holstein"}
 {"plz" : 21465, "location" : "Reinbek", "state" : "Schleswig-Holstein"}
 {"plz" : 21465, "location" : "Wentorf bei Hamburg", "state" : "Schleswig-Holstein"}
 {"plz" : 21481, "location" : "Buchhorst", "state" : "Schleswig-Holstein"}
 {"plz" : 21481, "location" : "Lauenburg/Elbe", "state" : "Schleswig-Holstein"}
 {"plz" : 21481, "location" : "Schnakenbek", "state" : "Schleswig-Holstein"}
 {"plz" : 21483, "location" : "Basedow", "state" : "Schleswig-Holstein"}
 {"plz" : 21483, "location" : "Dalldorf", "state" : "Schleswig-Holstein"}

 ],"at":[

 {"plz" : 1010, "location" : "Wien Innere Stadt", "state" : "Wien"}
 {"plz" : 1020, "location" : "Wien Leopoldstadt", "state" : "Wien"}
 {"plz" : 1030, "location" : "Wien Landstraße", "state" : "Wien"}
 {"plz" : 1040, "location" : "Wien Wieden", "state" : "Wien"}
 {"plz" : 1050, "location" : "Wien Margareten", "state" : "Wien"}
 {"plz" : 1060, "location" : "Wien Mariahilf", "state" : "Wien"}
 {"plz" : 1070, "location" : "Wien Neubau", "state" : "Wien"}
 {"plz" : 1080, "location" : "Wien Josefstadt", "state" : "Wien"}
 {"plz" : 1090, "location" : "Wien Alsergrund", "state" : "Wien"}
 {"plz" : 1100, "location" : "Wien Favoriten", "state" : "Wien"}

 ],"ch":[

 {"plz" : 1000, "location" : "Lausanne", "state" : "Waadt"}
 {"plz" : 1003, "location" : "Lausanne", "state" : "Waadt"}
 {"plz" : 1004, "location" : "Lausanne", "state" : "Waadt"}
 {"plz" : 1005, "location" : "Lausanne", "state" : "Waadt"}
 {"plz" : 1006, "location" : "Lausanne", "state" : "Waadt"}
 {"plz" : 1007, "location" : "Lausanne", "state" : "Waadt"}
 {"plz" : 1008, "location" : "Jouxtens-Mézery", "state" : "Waadt"}
 {"plz" : 1008, "location" : "Prilly", "state" : "Waadt"}
 {"plz" : 1009, "location" : "Pully", "state" : "Waadt"}
 {"plz" : 1010, "location" : "Lausanne", "state" : "Waadt"}

 ]}

